STARLINK-4027           
1 52601U 22052D   22142.58334491 -.00873802  00000+0 -60271-2 0  9990
2 52601  53.2172  41.3057 0001107  72.9777  57.5042 15.76284997  1309
STARLINK-4012           
1 52602U 22052E   22142.91668981 -.00871951  00000+0 -61777-2 0  9997
2 52602  53.2174  39.6503 0001190  90.5865 132.7116 15.75674985  1659
STARLINK-4016           
1 52603U 22052F   22142.83334491 -.00875603  00000+0 -61345-2 0  9994
2 52603  53.2174  40.0579 0001081  84.9601  27.7224 15.75938815  1640
STARLINK-4013           
1 52604U 22052G   22142.83334491 -.00875603  00000+0 -61516-2 0  9995
2 52604  53.2174  40.0615 0001083  82.8767  28.3408 15.75876014  1647
STARLINK-4000           
1 52605U 22052H   22142.83334491 -.00875665  00000+0 -61290-2 0  9993
2 52605  53.2174  40.0570 0001078  81.7783  31.3855 15.75960835  1643
STARLINK-3928           
1 52606U 22052J   22142.83334491 -.00875606  00000+0 -61459-2 0  9996
2 52606  53.2174  40.0604 0001082  85.3957  26.3107 15.75897005  1642
STARLINK-3947           
1 52607U 22052K   22142.83334491 -.00875623  00000+0 -61123-2 0  9994
2 52607  53.2174  40.0538 0001078  80.8392  33.7926 15.76021145  1643
STARLINK-3979           
1 52608U 22052L   22142.83334491 -.00875594  00000+0 -61232-2 0  9993
2 52608  53.2174  40.0563 0001074  85.6346  28.0230 15.75980194  1642
STARLINK-3997           
1 52609U 22052M   22142.83334491 -.00875583  00000+0 -60999-2 0  9991
2 52609  53.2174  40.0517 0001076  93.7936  21.7891 15.76065768  1644
STARLINK-3998           
1 52610U 22052N   22142.83334491 -.00875666  00000+0 -61176-2 0  9993
2 52610  53.2174  40.0551 0001074  84.7672  29.3665 15.76002865  1641
STARLINK-3980           
1 52611U 22052P   22142.83334491 -.00875649  00000+0 -60948-2 0  9991
2 52611  53.2174  40.0507 0001092  80.9984  35.0680 15.76086359  1648
STARLINK-4002           
1 52612U 22052Q   22142.83334491 -.00875578  00000+0 -61055-2 0  9993
2 52612  53.2174  40.0531 0001086  80.9208  34.1790 15.76044888  1641
STARLINK-3921           
1 52613U 22052R   22142.83334491 -.00875604  00000+0 -60833-2 0  9997
2 52613  53.2174  40.0485 0001085  84.4982  32.5319 15.76127665  1641
STARLINK-3982           
1 52614U 22052S   22142.83334491 -.00875563  00000+0 -60893-2 0  9998
2 52614  53.2174  40.0499 0001079  82.3871  34.1758 15.76104347  1641
STARLINK-4011           
1 52615U 22052T   22142.83334491 -.00875615  00000+0 -60665-2 0  9994
2 52615  53.2174  40.0455 0001091  85.9679  32.4988 15.76190160  1647
STARLINK-4015           
1 52616U 22052U   22142.83334491 -.00875505  00000+0 -60780-2 0  9991
2 52616  53.2174  40.0478 0001099  76.7067  40.8259 15.76144338  1640
STARLINK-3996           
1 52617U 22052V   22142.83334491 -.00875562  00000+0 -60493-2 0  9996
2 52617  53.2174  40.0425 0001097  81.3359  38.5609 15.76252456  1641
STARLINK-3983           
1 52618U 22052W   22142.83334491 -.00875582  00000+0 -60719-2 0  9990
2 52618  53.2174  40.0468 0001073  86.5530  31.4352 15.76169366  1645
STARLINK-3741           
1 52619U 22052X   22142.83334491 -.00875514  00000+0 -60433-2 0  9999
2 52619  53.2174  40.0414 0001111  74.6906  45.6808 15.76273276  1644
STARLINK-3975           
1 52620U 22052Y   22142.83334491 -.00875613  00000+0 -60613-2 0  9991
2 52620  53.2174  40.0447 0001085  84.5084  34.4442 15.76209454  1646
STARLINK-3984           
1 52621U 22052Z   22142.83334491 -.00875503  00000+0 -60270-2 0  9999
2 52621  53.2174  40.0384 0001089  84.6211  37.1808 15.76333854  1642
STARLINK-4008           
1 52622U 22052AA  22142.83334491 -.00875524  00000+0 -60549-2 0  9992
2 52622  53.2174  40.0437 0001093  86.7182  32.7086 15.76230614  1646
STARLINK-3986           
1 52623U 22052AB  22142.83334491 -.00875605  00000+0 -60168-2 0  9990
2 52623  53.2174  40.0364 0001104  86.9550  35.7946 15.76374680  1640
STARLINK-4009           
1 52624U 22052AC  22142.83334491 -.00875496  00000+0 -60380-2 0  9995
2 52624  53.2174  40.0407 0001087  92.2023  28.6511 15.76292715  1641
STARLINK-3988           
1 52625U 22052AD  22142.83334491 -.00875582  00000+0 -60122-2 0  9996
2 52625  53.2174  40.0353 0001110  84.6274  38.6185 15.76391145  1647
STARLINK-3990           
1 52626U 22052AE  22142.83334491 -.00875538  00000+0 -60337-2 0  9996
2 52626  53.2174  40.0396 0001099  79.3503  41.9984 15.76309818  1647
STARLINK-3992           
1 52627U 22052AF  22142.83334491 -.00875589  00000+0 -59945-2 0  9996
2 52627  53.2174  40.0324 0001107  89.6718  34.9550 15.76457566  1646
STARLINK-4001           
1 52628U 22052AG  22142.83334491 -.00875602  00000+0 -60234-2 0  9996
2 52628  53.2174  40.0376 0001085  88.3648  33.9363 15.76350128  1644
STARLINK-4022           
1 52629U 22052AH  22142.83334491 -.00875497  00000+0 -59882-2 0  9996
2 52629  53.2174  40.0314 0001120  79.5557  45.5371 15.76478427  1649
STARLINK-3989           
1 52630U 22052AJ  22142.83334491 -.00875550  00000+0 -60054-2 0  9991
2 52630  53.2174  40.0347 0001097  84.1160  39.5757 15.76415760  1644
STARLINK-3794           
1 52631U 22052AK  22142.83334491 -.00875411  00000+0 -59780-2 0  9992
2 52631  53.2174  40.0294 0001108  79.3373  46.7220 15.76514339  1648
STARLINK-3995           
1 52632U 22052AL  22142.83334491 -.00875509  00000+0 -60000-2 0  9998
2 52632  53.2174  40.0336 0001094  83.5370  40.6338 15.76434813  1645
STARLINK-3994           
1 52633U 22052AM  22142.83334491 -.00875485  00000+0 -59622-2 0  9990
2 52633  53.2174  40.0265 0001109  83.9159  43.5409 15.76575776  1648
STARLINK-3974           
1 52634U 22052AN  22142.83334491 -.00875525  00000+0 -59832-2 0  9999
2 52634  53.2174  40.0308 0001094  83.9746  41.5905 15.76498194  1649
STARLINK-3978           
1 52635U 22052AP  22142.83334491 -.00875580  00000+0 -59521-2 0  9996
2 52635  53.2174  40.0245 0001101  84.5018  43.8842 15.76616535  1644
STARLINK-3967           
1 52636U 22052AQ  22142.83334491 -.00875429  00000+0 -59724-2 0  9994
2 52636  53.2174  40.0287 0001126  76.1676  50.3526 15.76535710  1642
STARLINK-3961           
1 52637U 22052AR  22142.83334491 -.00875499  00000+0 -59462-2 0  9991
2 52637  53.2174  40.0234 0001097  82.2810  46.5705 15.76636489  1641
STARLINK-3941           
1 52638U 22052AS  22142.83334491 -.00875522  00000+0 -59669-2 0  9998
2 52638  53.2174  40.0278 0001098  81.0276  45.9391 15.76559240  1647
STARLINK-3968           
1 52639U 22052AT  22142.83334491 -.00875519  00000+0 -59301-2 0  9998
2 52639  53.2174  40.0205 0001119  80.7036  49.5331 15.76697589  1645
STARLINK-3977           
1 52640U 22052AU  22142.83334491 -.00875460  00000+0 -59558-2 0  9999
2 52640  53.2174  40.0258 0001114  76.1743  51.7282 15.76599094  1646
STARLINK-3991           
1 52641U 22052AV  22142.91668981 -.00872969  00000+0 -59477-2 0  9994
2 52641  53.2174  39.6056 0001174  96.4804 147.5490 15.76558421  1651
STARLINK-3971           
1 52642U 22052AW  22142.83334491 -.00875480  00000+0 -59404-2 0  9993
2 52642  53.2174  40.0228 0001110  86.6358  42.6725 15.76657708  1647
STARLINK-3963           
1 52643U 22052AX  22142.83334491 -.00875479  00000+0 -59069-2 0  9999
2 52643  53.2174  40.0166 0001111  82.1197  49.9172 15.76784236  1645
STARLINK-3985           
1 52644U 22052AY  22142.83334491 -.00875798  00000+0 -59367-2 0  9995
2 52644  53.2174  40.0218 0001122  92.4527  37.3027 15.76680524  1642
STARLINK-3973           
1 52645U 22052AZ  22142.83334491 -.00875557  00000+0 -59021-2 0  9996
2 52645  53.2174  40.0155 0001124  83.5313  48.9635 15.76804522  1648
STARLINK-3832           
1 52646U 22052BA  22142.83334491 -.00875680  00000+0 -59207-2 0  9990
2 52646  53.2174  40.0187 0001103  93.9443  37.2162 15.76737793  1641
STARLINK-3846           
1 52647U 22052BB  22142.83334491 -.00875578  00000+0 -58913-2 0  9990
2 52647  53.2174  40.0136 0001113  82.8535  50.5461 15.76846168  1643
STARLINK-3854           
1 52648U 22052BC  22142.83334491 -.00875571  00000+0 -59141-2 0  9998
2 52648  53.2174  40.0179 0001118  90.6626  40.9467 15.76759542  1642
STARLINK-3868           
1 52649U 22052BD  22142.83334491 -.00875483  00000+0 -58975-2 0  9995
2 52649  53.2174  40.0144 0001178  70.4107  62.5778 15.76819386  1649
STARLINK-3891           
1 52650U 22052BE  22142.83334491 -.00875596  00000+0 -58862-2 0  9997
2 52650  53.2174  40.0131 0001151  78.4468  55.4131 15.76865698  1647
FALCON 9 DEB            
1 52651U 22052BF  22142.09638208  .00259424  35581-4  86351-3 0  9995
2 52651  53.2091  43.4811 0012425 280.7292  79.2336 15.89712150  1152
FALCON 9 DEB            
1 52652U 22052BG  22142.09467035  .00262897  36405-4  85385-3 0  9994
2 52652  53.2097  43.4713 0012799 291.1517  68.8142 15.90182546  1151
FALCON 9 DEB            
1 52653U 22052BH  22142.08990585  .00278700  40026-4  85626-3 0  9997
2 52653  53.2120  43.4447 0008158 286.5877  73.4255 15.91338903  1152
FALCON 9 DEB            
1 52654U 22052BJ  22142.02550556  .00315208  48453-4  94874-3 0  9994
2 52654  53.2124  43.7554 0008602 307.9887  52.0364 15.91703493  1145
COSMOS 2556             
1 52713U 22054A   22142.54003126 -.00000072  00000+0  00000+0 0  9991
2 52713  97.6964  57.0268 0049027  44.0136  34.4882 15.13580243   493
2022-054B               
1 52714U 22054B   22142.54254830 -.00000127  00000+0  00000+0 0  9993
2 52714  97.7011  57.0985 0154737  64.1197 106.2217 15.40107818   492
CST-100 STARLINER OFT-2 
1 52715U 22055A   22142.41742970  .00010590  00000+0  19593-3 0  9993
2 52715  51.6434 104.2167 0005050 142.6721   4.1704 15.49604431341189
2022-056A               
1 52716U 22056A   22142.26602776  .00000324  00000+0  19649-3 0  9993
2 52716  86.0004 319.4050 0017513 301.6470  58.2983 14.03059471   268
2022-056B               
1 52717U 22056B   22142.62133410 -.00000251  00000+0 -17072-3 0  9997
2 52717  86.0014 319.2470 0013273 299.6625  60.3255 14.03897733   314
